SCHOOL_CODE,SCHOOL_NAME_1,SCHOOL_NAME_2,ADDRESS,SCHOOL_ZIP,ZIP_PLUS_4,CITY,STATE_CD,PHONE_NUMBER,SCH_START_GRADE,SCH_TERM_GRADE,HPADDR,SCHOOL_LEVEL_NAME
"1020","WEST PHILADELPHIA HIGH SCHOOL","WEST PHILADELPHIA HIGH SCHOOL","4901 CHESTNUT ST.","19139",,"PHILADELPHIA               ","PA","2154712902","09 ","12 ","www.philasd.org/schools/westphila","HIGH SCHOOL"
"2410","GIRARD ACADEMIC MUSIC PROGRAM","GIRARD ACADEMIC MUSIC PROGRAM","2136 W. RITNER ST.","19145",,"PHILADELPHIA               ","PA","2159528589","05 ","12 ","www.philasd.org/schools/gamp","HIGH SCHOOL"
"1010","JOHN BARTRAM HIGH SCHOOL","BARTRAM, JOHN HIGH","2401 S. 67TH ST.","19142",,"PHILADELPHIA               ","PA","2154926450","09 ","12 ",,"HIGH SCHOOL"
"7370","GROVER WASHINGTON JR. MIDDLE","WASHINGTON, GROVER JR. MIDDLE","201 E. OLNEY AVE.","19120",,"PHILADELPHIA               ","PA","2154560422","05 ","08 ","www.philasd.org/schools/grover","MIDDLE SCHOOL"
"1080","UNIVERSITY CITY HIGH SCHOOL","UNIVERSITY CITY HIGH SCHOOL","3601 FILBERT ST.","19104",,"PHILADELPHIA               ","PA","2153875100","09 ","12 ","www.philasd.org/schools/ucity","HIGH SCHOOL"
"1100","SAYRE HIGH SCHOOL","SAYRE, WILLIAM L. HIGH SCHOOL","5800 WALNUT ST.","19139",,"PHILADELPHIA               ","PA","2154712904","09 ","12 ","www.philasd.org/schools/sayre","HIGH SCHOOL"
"1110","SHAW MIDDLE SCHOOL","SHAW, ANNA H. MIDDLE SCH","5400 WARRINGTON AVE.","19143",,"PHILADELPHIA               ","PA","2157272161","07 ","08 ","www.philasd.org/schools/shaw","MIDDLE SCHOOL"
"1130","TILDEN MIDDLE SCHOOL","TILDEN MIDDLE SCHOOL","6601 ELMWOOD AVE.","19142",,"PHILADELPHIA               ","PA","2154926454","06 ","08 ",,"MIDDLE SCHOOL"
"1150","GEORGE PEPPER MIDDLE SCHOOL","PEPPER, GEORGE MIDDLE SCHOOL","2901 S. 84TH ST.","19153",,"PHILADELPHIA               ","PA","2154926457","05 ","08 ","www.philasd.org/schools/pepper","MIDDLE SCHOOL"
"1200","JOHN BARRY ELEMENTARY SCHOOL","BARRY, JOHN ELEMENTARY SCHOOL","5900 RACE ST.","19139",,"PHILADELPHIA               ","PA","2154712744","00 ","08 ",,"ELEMENTARY SCHOOL"
"1440","PENROSE SCHOOL","PENROSE SCHOOL","2515 S. 78TH ST.","19153",,"PHILADELPHIA               ","PA","2154926455","00 ","08 ","www.philasd.org/schools/penrose","ELEMENTARY SCHOOL"
"1460","ADD B ANDERSON SCHOOL","ANDERSON, ADD B. SCHOOL","1034 S. 60TH ST.","19143",,"PHILADELPHIA               ","PA","2154712903","00 ","08 ","www.philasd.org/schools/anderson","ELEMENTARY SCHOOL"
"1470","ALAIN LOCKE SCHOOL","LOCKE, ALAIN SCHOOL","4550 HAVERFORD AVE.","19139",,"PHILADELPHIA               ","PA","2158238202","00 ","08 ","www.philasd.org/schools/locke","ELEMENTARY SCHOOL"
"1490","BLANKENBURG SCHOOL","BLANKENBURG, RUDOLPH SCHOOL","4600 W. GIRARD AVE.","19131",,"PHILADELPHIA               ","PA","2155815505","00 ","08 ","www.philasd.org/schools/blankenburg","ELEMENTARY SCHOOL"
"1530","JOSEPH LEIDY SCHOOL","LEIDY, JOSEPH SCHOOL","1301 BELMONT AVE.","19104",,"PHILADELPHIA               ","PA","2155815500","00 ","08 ","www.philasd.org/schools/leidy","ELEMENTARY SCHOOL"
"1580","MIDDLE YEARS ALTERNATIVE-MYA","MYA-MIDDLE YEARS ALTERNATIVE","4725 FAIRMOUNT AVE.","19139",,"PHILADELPHIA               ","PA","2155815633","05 ","08 ","www.philasd.org/schools/mya","MIDDLE SCHOOL"
"1230","BRYANT ACADEMICS PLUS SCHOOL","BRYANT, WILLIAM C. SCHOOL","6001 CEDAR AVE.","19143",,"PHILADELPHIA               ","PA","2154712910","00 ","08 ","www.philasd.org/schools/bryant","ELEMENTARY SCHOOL"
"1250","J. W. CATHARINE SCHOOL","CATHARINE, JOSEPH SCHOOL","6600 CHESTER AVE.","19142",,"PHILADELPHIA               ","PA","2157272155","00 ","05 ",,"ELEMENTARY SCHOOL"
"1260","B. B. COMEGYS SCHOOL","COMEGYS, BENJAMIN B. SCHOOL","5100 GREENWAY AVE.","19143",,"PHILADELPHIA               ","PA","2157272162","00 ","06 ",,"ELEMENTARY SCHOOL"
"7130","WAGNER MIDDLE SCHOOL","WAGNER, GEN. LOUIS MIDDLE SCH.","1701 CHELTEN AVE.","19126",,"PHILADELPHIA               ","PA","2152765252","06 ","08 ","www.philasd.org/schools/wagner","MIDDLE SCHOOL"
"1300","A. D. HARRINGTON SCHOOL","HARRINGTON, AVERY D. SCHOOL","5300 BALTIMORE AVE.","19143",,"PHILADELPHIA               ","PA","2154712914","00 ","06 ","www.philasd.org/schools/harrington","ELEMENTARY SCHOOL"
"1330","SAMUEL B HUEY SCHOOL","HUEY, SAMUEL B. SCHOOL","5200 PINE ST.","19143",,"PHILADELPHIA               ","PA","2154712901","00 ","08 ",,"ELEMENTARY SCHOOL"
"1340","HENRY C. LEA SCHOOL","LEA, HENRY C.","4700 LOCUST ST.","19139",,"PHILADELPHIA               ","PA","2154712915","00 ","08 ","www.philasd.org/schools/lea","ELEMENTARY SCHOOL"
"1350","W C LONGSTRETH SCHOOL","LONGSTRETH, WILLIAM C. SCHOOL","5700 WILLOWS AVE.","19143",,"PHILADELPHIA               ","PA","2157272158","00 ","08 ","www.philasd.org/schools/longstreth","ELEMENTARY SCHOOL"
"1360","MORTON MCMICHAEL SCHOOL","MC MICHAEL, MORTON SCHOOL","3543 FAIRMOUNT AVE.","19104",,"PHILADELPHIA               ","PA","2158238205","00 ","08 ","www.philasd.org/schools/mcmichael","ELEMENTARY SCHOOL"
"1370","S. WEIR MITCHELL","MITCHELL ELEMENTARY SCHOOL","5500 KINGSESSING AVE.","19143",,"PHILADELPHIA               ","PA","2157272160","00 ","05 ",,"ELEMENTARY SCHOOL"
"1380","THOMAS G MORTON SCHOOL","MORTON, THOMAS G. SCHOOL","2501 S. 63RD ST.","19142",,"PHILADELPHIA               ","PA","2157272164","00 ","05 ","www.philasd.org/schools/morton","ELEMENTARY SCHOOL"
"1390","SAMUEL POWEL SCHOOL","POWEL, SAMUEL SCHOOL","301 N. 36TH ST.","19104",,"PHILADELPHIA               ","PA","2158238201","00 ","04 ","www.philasd.org/schools/powel","ELEMENTARY SCHOOL"
"1400","JOHN M PATTERSON SCHOOL","PATTERSON, JOHN M. SCHOOL","7000 BUIST AVE.","19142",,"PHILADELPHIA               ","PA","2154926453","00 ","04 ","www.philasd.org/schools/patterson","ELEMENTARY SCHOOL"
"1410","JAMES RHOADS SCHOOL","RHOADS, JAMES SCHOOL","4901 PARRISH ST.","19139",,"PHILADELPHIA               ","PA","2155815504","00 ","08 ","www.philasd.org/schools/rhoads","ELEMENTARY SCHOOL"
"1420","M. WASHINGTON ACADEMICS PLUS","WASHINGTON, MARTHA SCHOOL","766 N. 44TH ST.","19104",,"PHILADELPHIA               ","PA","2158238203","00 ","08 ","www.philasd.org/schools/marthawashington","ELEMENTARY SCHOOL"
"1430","ALEXANDER WILSON SCHOOL","WILSON, ALEXANDER SCHOOL","1300 S. 46TH ST.","19143",,"PHILADELPHIA               ","PA","2158238206","00 ","06 ","www.philasd.org/schools/alexanderwilson","ELEMENTARY SCHOOL"
"2000","SOUTH PHILADELPHIA H.S.","SOUTH PHILADELPHIA H.S.","2101 S. BROAD ST.","19148",,"PHILADELPHIA               ","PA","2159526220","09 ","12 ","www.philasd.org/schools/southphila","HIGH SCHOOL"
"2010","BENJAMIN FRANKLIN HIGH SCHOOL","FRANKLIN, BENJAMIN HIGH SCHOOL","550 N. BROAD ST.","19130",,"PHILADELPHIA               ","PA","2152994662","09 ","12 ","www.philasd.org/schools/benfranklin","HIGH SCHOOL"
"2020","CREATIVE AND PERFORMING ARTS","CREATIVE AND PERFORMING ARTS","901 S. BROAD ST.","19147",,"PHILADELPHIA               ","PA","2159522462","09 ","12 ","www.philasd.org/schools/capa","HIGH SCHOOL"
"2090","EDWARD BOK HIGH SCHOOL","BOK, EDWARD HIGH SCHOOL","1901 S. 9TH ST.","19148",,"PHILADELPHIA               ","PA","2159526200","09 ","12 ","www.bok.phila.k12.pa.us","CAREER AND TECHNICAL HIGH SCHL"
"2130","VAUX HIGH SCHOOL","VAUX, ROBERTS HIGH SCHOOL","2300 W. MASTER ST.","19121",,"PHILADELPHIA               ","PA","2156845068","09 ","12 ","www.philasd.org/schools/vaux","HIGH SCHOOL"
"2140","MASTERMAN HIGH SCHOOL","MASTERMAN, JULIA R. HIGH SCHL.","1699 SPRING GARDEN ST.","19130",,"PHILADELPHIA               ","PA","2152994661","05 ","12 ","www.philasd.org/schools/masterman","HIGH SCHOOL"
"2160","FURNESS HIGH SCHOOL","FURNESS, HORACE HIGH SCHOOL","1900 S. 3RD ST.","19148",,"PHILADELPHIA               ","PA","2159526226","09 ","12 ","www.philasd.org/schools/furness","HIGH SCHOOL"
"2190","D. NEWLIN FELL SCHOOL","FELL, D. NEWLIN SCHOOL","900 W. OREGON AVE.","19148",,"PHILADELPHIA               ","PA","2159526237","00 ","08 ","www.philasd.org/schools/dnfell","ELEMENTARY SCHOOL"
"2200","JAMES ALCORN SCHOOL","ALCORN, JAMES SCHOOL","3200 DICKINSON ST.","19146",,"PHILADELPHIA               ","PA","2159526219","00 ","08 ","www.philasd.org/schools/alcorn","ELEMENTARY SCHOOL"
"2210","BACHE-MARTIN SCHOOL","BACHE-MARTIN SCHOOL","2201 BROWN ST.","19130",,"PHILADELPHIA               ","PA","2156845074","00 ","08 ","www.philasd.org/schools/bachemartin","ELEMENTARY SCHOOL"
"2240","AMEDEE F BREGY SCHOOL","BREGY, F. AMEDEE SCHOOL","1700 BIGLER ST.","19145",,"PHILADELPHIA               ","PA","2159526218","00 ","08 ","www.philasd.org/schools/bregy","ELEMENTARY SCHOOL"
"2260","GEORGE W CHILDS SCHOOL","CHILDS, GEORGE W. SCHOOL","1599 WHARTON ST.","19146",,"PHILADELPHIA               ","PA","2159526213","00 ","08 ","www.philasd.org/schools/childs","ELEMENTARY SCHOOL"
"2480","CHESTER A. ARTHUR SCHOOL","ARTHUR, CHESTER A. SCHOOL","2000 CATHARINE ST.","19146",,"PHILADELPHIA               ","PA","2158755774","00 ","08 ",,"ELEMENTARY SCHOOL"
"2490","LAURA W. WARING SCHOOL","WARING, LAURA W. SCHOOL","1801 GREEN ST.","19130",,"PHILADELPHIA               ","PA","2156845073","00 ","08 ",,"ELEMENTARY SCHOOL"
"2510","ANDREW JACKSON SCHOOL","JACKSON, ANDREW SCHOOL","1213 S. 12TH ST.","19147",,"PHILADELPHIA               ","PA","2159526223","00 ","08 ",,"ELEMENTARY SCHOOL"
"2520","A.S. JENKS ACADEMICS PLUS SCH","JENKS, ABRAM SCHOOL","2501 S. 13TH ST.","19148",,"PHILADELPHIA               ","PA","2159526224","00 ","04 ","www.philasd.org/schools/asjenks","ELEMENTARY SCHOOL"
"2690","JOHN H TAGGART SCHOOL","TAGGART, JOHN H. SCHOOL","400 W. PORTER ST.","19148",,"PHILADELPHIA               ","PA","2159526228","00 ","08 ","www.philasd.org/schools/taggart","ELEMENTARY SCHOOL"
"2720","ABIGAIL VARE SCHOOL","VARE, ABIGAIL SCHOOL","1621 E. MOYAMENSING AVE.","19148",,"PHILADELPHIA               ","PA","2159528620","00 ","08 ","www.philasd.org/schools/avare","ELEMENTARY SCHOOL"
"2730","GEORGE WASHINGTON SCHOOL","WASHINGTON, GEORGE SCHOOL","1198 S. 5TH ST.","19147",,"PHILADELPHIA               ","PA","2159526209","00 ","08 ","www.philasd.org/schools/gwes","ELEMENTARY SCHOOL"
"2540","FRANCIS SCOTT KEY SCHOOL","KEY, FRANCIS SCOTT SCHOOL","2230 S. 8TH ST.","19148",,"PHILADELPHIA               ","PA","2159526216","00 ","06 ","www.philasd.org/schools/key","ELEMENTARY SCHOOL"
"2580","ELIZA B. KIRKBRIDE SCHOOL","KIRKBRIDE, ELIZA B. SCHOOL","1501 S. 7TH ST.","19147",,"PHILADELPHIA               ","PA","2159526214","00 ","08 ","www.philasd.org/schools/kirkbride","ELEMENTARY SCHOOL"
"2590","GEORGE W. NEBINGER SCHOOL","NEBINGER, GEORGE W. SCHOOL","601 CARPENTER ST.","19147",,"PHILADELPHIA               ","PA","2159526202","00 ","08 ",,"ELEMENTARY SCHOOL"
"5600","KENSINGTON URBAN EDUCATION","KENSINGTON URBAN EDUCATION","2051 E. CUMBERLAND ST.","19125",,"PHILADELPHIA               ","PA","2152915420","09 ","11 ",,"HIGH SCHOOL"
"2630","GEORGE SHARSWOOD SCHOOL","SHARSWOOD, GEORGE SCHOOL","2300 S. 2ND ST.","19148",,"PHILADELPHIA               ","PA","2159526212","00 ","08 ","www.philasd.org/schools/sharswood","ELEMENTARY SCHOOL"
"2640","SOUTHWARK SCHOOL","SOUTHWARK SCHOOL","1835 S. 9TH ST.","19148",,"PHILADELPHIA               ","PA","2159528606","00 ","08 ","www.philasd.org/schools/southwark/","ELEMENTARY SCHOOL"
"2290","FRANKLIN LEARNING CENTER","FRANKLIN LEARNING CENTER","616 N. 15TH ST.","19130",,"PHILADELPHIA               ","PA","2156845916","09 ","12 ","www.flc.phila.k12.pa.us","HIGH SCHOOL"
"2320","STEPHEN GIRARD SCHOOL","GIRARD, STEPHEN SCHOOL","1800 SNYDER AVE.","19145",,"PHILADELPHIA               ","PA","2159528554","00 ","04 ","www.philasd.org/schools/girard","ELEMENTARY SCHOOL"
"2340","MC CALL SCHOOL","MC CALL, GEN. GEORGE A. SCHOOL","325 S. 7TH ST.","19106",,"PHILADELPHIA               ","PA","2153517350","00 ","08 ","www.philasd.org/schools/mccall","ELEMENTARY SCHOOL"
"2370","DELAPLAINE MCDANIEL SCHOOL","MCDANIEL, DELAPLAINE SCHOOL","1801 S. 22ND ST.","19145",,"PHILADELPHIA               ","PA","2159526380","00 ","08 ","www.philasd.org/schools/mcdaniel","ELEMENTARY SCHOOL"
"2380","MEREDITH SCHOOL","MEREDITH, WILLIAM M. SCHOOL","725 S. 5TH ST.","19147",,"PHILADELPHIA               ","PA","2153517360","00 ","08 ","www.meredith.phila.k12.pa.us","ELEMENTARY SCHOOL"
"2390","ROBERT MORRIS SCHOOL","MORRIS, ROBERT SCHOOL","2600 W. THOMPSON ST.","19121",,"PHILADELPHIA               ","PA","2156845087","00 ","08 ","www.philasd.org/schools/morris","ELEMENTARY SCHOOL"
"2420","GEN. JOHN F. REYNOLDS SCHOOL","REYNOLDS, GEN. JOHN F. SCHOOL","1429 N. 24TH ST.","19121",,"PHILADELPHIA               ","PA","2156845061","00 ","08 ","www.reynolds.phila.k12.pa.us","ELEMENTARY SCHOOL"
"2440","SMITH ACADEMICS PLUS SCHOOL","SMITH, WALTER G. SCHOOL","1900 WHARTON ST.","19146",,"PHILADELPHIA               ","PA","2159526222","00 ","08 ",,"ELEMENTARY SCHOOL"
"2450","EDWIN M. STANTON SCHOOL","STANTON, EDWIN M. SCHOOL","1700 CHRISTIAN ST.","19146",,"PHILADELPHIA               ","PA","2158753185","00 ","08 ",,"ELEMENTARY SCHOOL"
"2470","ALBERT M. GREENFIELD SCHOOL","GREENFIELD, ALBERT M. SCHOOL","2200 CHESTNUT ST.","19103",,"PHILADELPHIA               ","PA","2152993566","00 ","08 ","www.centercityschools.com/Greenfield/","ELEMENTARY SCHOOL"
"7380","ALEXANDER MCCLURE SCHOOL","MC CLURE, ALEXANDER K. SCHOOL","600 W. HUNTING PARK AVE.","19140",,"PHILADELPHIA               ","PA","2154563001","00 ","05 ","www.philasd.org/schools/mcclure","ELEMENTARY SCHOOL"
"7390","ANDREW J. MORRISON SCHOOL","MORRISON, ANDREW J. SCHOOL","5100 N. 3RD ST.","19120",,"PHILADELPHIA               ","PA","2154563004","00 ","08 ","www.philasd.org/schools/morrison","ELEMENTARY SCHOOL"
"7400","OLNEY ELEMENTARY SCHOOL","OLNEY ELEMENTARY SCHOOL","5301 N. WATER ST.","19120",,"PHILADELPHIA               ","PA","2154563003","00 ","08 ","www.philasd.org/schools/olney","ELEMENTARY SCHOOL"
"7430","JAMES J. SULLIVAN SCHOOL","SULLIVAN, JAMES J. SCHOOL","5300 DITMAN ST.","19124",,"PHILADELPHIA               ","PA","2155372524","00 ","05 ","www.philasd.org/schools/sullivan","ELEMENTARY SCHOOL"
"1280","PENN ALEXANDER SCHOOL","PENN ALEXANDER SCHOOL","4209 SPRUCE ST.","19104",,"PHILADELPHIA               ","PA","2158235465","00 ","08 ","www.philasd.org/schools/pennalexander","ELEMENTARY SCHOOL"
"7150","JUNIATA PARK ACADEMY","JUNIATA PARK ACADEMY","801 E. HUNTING PARK AVE.","19124",,"PHILADELPHIA               ","PA","2152897930","00 ","08 ","www.philasd.org/schools/juniatapark","ELEMENTARY SCHOOL"
"7440","BAYARD TAYLOR SCHOOL","TAYLOR, BAYARD SCHOOL","3698 N. RANDOLPH ST.","19140",,"PHILADELPHIA               ","PA","2152274435","00 ","05 ","www.philasd.org/schools/taylor","ELEMENTARY SCHOOL"
"7460","WILLIAM H. ZIEGLER SCHOOL","ZIEGLER, WILLIAM H. SCHOOL","5935 SAUL ST.","19149",,"PHILADELPHIA               ","PA","2155372510","00 ","08 ","www.philasd.org/schools/ziegler","ELEMENTARY SCHOOL"
"7470","BRIDESBURG SCHOOL","BRIDESBURG SCHOOL","2824 JENKS ST.","19137",,"PHILADELPHIA               ","PA","2155372515","00 ","05 ","www.philasd.org/schools/bridesburg","ELEMENTARY SCHOOL"
"7490","PRINCE HALL SCHOOL","PRINCE HALL","6101-6167 N. GRATZ ST.","19141",,"PHILADELPHIA               ","PA","2152765255","00 ","05 ","www.philasd.org/schools/princehall","ELEMENTARY SCHOOL"
"7500","FELTONVILLE ARTS & SCIENCES","FELTONVILLE ARTS & SCIENCES","210 E. COURTLAND ST.","19120",,"PHILADELPHIA               ","PA","2154565603","06 ","08 ","www.philasd.org/schools/feltonville-arts-and-sciences","MIDDLE SCHOOL"
"7510","MARY BETHUNE SCHOOL","BETHUNE, MARY MCLEOD SCHOOL","3301 OLD YORK RD.","19140",,"PHILADELPHIA               ","PA","2152274433","00 ","08 ","www.philasd.org/schools/bethune","ELEMENTARY SCHOOL"
"7530","ROWEN SCHOOL","ROWEN, WILLIAM SCHOOL","6841 N. 19TH ST.","19126",,"PHILADELPHIA               ","PA","2152765251","00 ","05 ","www.philasd.org/schools/rowen","ELEMENTARY SCHOOL"
"7730","ROBERTO CLEMENTE MIDDLE SCHOOL","CLEMENTE, ROBERTO MIDD. SCHOOL","122 W. ERIE AVE.","19140",,"PHILADELPHIA               ","PA","2152915400","06 ","08 ","www.philasd.org/schools/clemente","MIDDLE SCHOOL"
"8020","NORTHEAST HIGH SCHOOL","NORTHEAST HIGH SCHOOL","1601 COTTMAN AVE.","19111",,"PHILADELPHIA               ","PA","2157285018","09 ","12 ","www.nehs.phila.k12.pa.us","HIGH SCHOOL"
"8240","HAMILTON DISSTON SCHOOL","DISSTON, HAMILTON SCHOOL","6801 COTTAGE ST.","19135",,"PHILADELPHIA               ","PA","2153355661","00 ","08 ","www.philasd.org/schools/disston","ELEMENTARY SCHOOL"
"8250","EDWIN FORREST SCHOOL","FORREST, EDWIN SCHOOL","7300 COTTAGE ST.","19136",,"PHILADELPHIA               ","PA","2153355652","00 ","06 ","www.philasd.org/schools/forrest","ELEMENTARY SCHOOL"
"8260","FOX CHASE ACADEMICS PLUS SCHL","FOX CHASE SCHOOL","500 RHAWN ST.","19111",,"PHILADELPHIA               ","PA","2157285016","00 ","05 ","www.philasd.org/schools/foxchase","ELEMENTARY SCHOOL"
"8270","THOMAS HOLME SCHOOL","HOLME, THOMAS SCHOOL","9120 ACADEMY RD.","19114",,"PHILADELPHIA               ","PA","2153355656","00 ","06 ","www.philasd.org/schools/holme","ELEMENTARY SCHOOL"
"8300","MAYFAIR SCHOOL","MAYFAIR SCHOOL","3001 PRINCETON AVE.","19149",,"PHILADELPHIA               ","PA","2153355651","00 ","08 ","www.philasd.org/schools/mayfair","ELEMENTARY SCHOOL"
"8310","J. HAMPTON MOORE SCHOOL","MOORE, J. HAMPTON SCHOOL","6900 SUMMERDALE AVE.","19111",,"PHILADELPHIA               ","PA","2157285011","00 ","05 ","www.philasd.org/schools/moore","ELEMENTARY SCHOOL"
"8320","GEN HARRY LABRUM MIDDLE SCHOOL","LABRUM,GEN HARRY MIDDLE SCHOOL","10800 HAWLEY RD.","19154",,"PHILADELPHIA               ","PA","2152812607","06 ","08 ","www.philasd.org/schools/labrum","MIDDLE SCHOOL"
"8340","SOLIS-COHEN ACADEMICS PLUS SCH","SOLIS-COHEN, SOLOMON SCHOOL","7001 HORROCKS ST.","19149",,"PHILADELPHIA               ","PA","2157285012","00 ","06 ","www.philasd.org/schools/solis-cohen","ELEMENTARY SCHOOL"
"8350","GILBERT SPRUANCE SCHOOL","SPRUANCE, GILBERT SCHOOL","6401 HORROCKS ST.","19149",,"PHILADELPHIA               ","PA","2155372514","00 ","08 ","www.philasd.org/schools/spruance","ELEMENTARY SCHOOL"
"8030","GEORGE WASHINGTON HIGH","WASHINGTON, GEORGE HIGH SCHOOL","10175 BUSTLETON AVE.","19116",,"PHILADELPHIA               ","PA","2159612001","09 ","12 ","www.philasd.org/schools/gwhs","HIGH SCHOOL"
"8090","SWENSON ARTS/TECH HIGH SCHOOL","SWENSON ARTS/TECH HIGH SCHOOL","2750 RED LION RD.","19114",,"PHILADELPHIA               ","PA","2159612009","09 ","12 ","www.swenson.phila.k12.pa.us","CAREER AND TECHNICAL HIGH SCHL"
"8120","WOODROW WILSON MIDDLE SCHOOL","WILSON, WOODROW MIDDLE SCHOOL","1800 COTTMAN AVE.","19111",,"PHILADELPHIA               ","PA","2157285015","06 ","08 ","www.philasd.org/schools/wilson","MIDDLE SCHOOL"
"8140","AUSTIN MEEHAN MIDDLE SCHOOL","MEEHAN, AUSTIN MIDDLE SCHOOL","3001 RYAN AVE.","19152",,"PHILADELPHIA               ","PA","2153355654","07 ","08 ","www.philasd.org/schools/meehan","MIDDLE SCHOOL"
"8160","BALDI MIDDLE SCHOOL","BALDI MIDDLE SCHOOL","8801 VERREE RD.","19115",,"PHILADELPHIA               ","PA","2159612003","06 ","08 ","www.philasd.org/schools/baldi","MIDDLE SCHOOL"
"8180","JOHN HANCOCK SCHOOL","HANCOCK, JOHN SCHOOL","3700 MORRELL AVE.","19114",,"PHILADELPHIA               ","PA","2152812604","00 ","05 ","www.philasd.org/schools/hancock","ELEMENTARY SCHOOL"
"8200","ETHAN ALLEN SCHOOL","ALLEN, ETHAN SCHOOL","6329 BATTERSBY ST.","19149",,"PHILADELPHIA               ","PA","2155372530","00 ","08 ",,"ELEMENTARY SCHOOL"
"8210","J. BROWN ACADEMICS PLUS SCHOOL","BROWN, JOSEPH H. SCHOOL","3600 STANWOOD ST.","19136",,"PHILADELPHIA               ","PA","2153355650","00 ","06 ","www.philasd.org/schools/jhbrown","ELEMENTARY SCHOOL"
"8230","CROSSAN ACADEMICS PLUS SCHOOL","CROSSAN, KENNEDY C. SCHOOL","7350 BINGHAM ST.","19111",,"PHILADELPHIA               ","PA","2157285014","00 ","05 ","www.philasd.org/schools/crossan","ELEMENTARY SCHOOL"
"8010","ABRAHAM LINCOLN HIGH","LINCOLN, ABRAHAM HIGH SCHOOL","3201 RYAN AVE.","19136",,"PHILADELPHIA               ","PA","2153355653","09 ","12 ","www.philasd.org/schools/lincoln","HIGH SCHOOL"
"8360","RHAWNHURST SCHOOL","RHAWNHURST SCHOOL","7809 CASTOR AVE.","19152",,"PHILADELPHIA               ","PA","2157285013","00 ","05 ","www.philasd.org/schools/rhawnhurst","ELEMENTARY SCHOOL"
"8370","WATSON COMLY SCHOOL","COMLY, WATSON SCHOOL","1001 BYBERRY RD.","19116",,"PHILADELPHIA               ","PA","2159612008","00 ","05 ","www.philasd.org/schools/comly","ELEMENTARY SCHOOL"
"8420","STEPHEN DECATUR SCHOOL","DECATUR, STEPHEN SCHOOL","3500 ACADEMY RD.","19154",,"PHILADELPHIA               ","PA","2152812606","00 ","08 ","www.philasd.org/schools/decatur","ELEMENTARY SCHOOL"
"8430","JOSEPH GREENBERG SCHOOL","GREENBERG, JOSEPH SCHOOL","600 SHARON LN.","19115",,"PHILADELPHIA               ","PA","2159612002","00 ","08 ","www.philasd.org/schools/greenberg","ELEMENTARY SCHOOL"
"8440","WILLIAM H. LOESCHE SCHOOL","LOESCHE, WILLIAM H. SCHOOL","595 TOMLINSON RD.","19116",,"PHILADELPHIA               ","PA","2159612000","00 ","05 ","www.philasd.org/schools/loesche","ELEMENTARY SCHOOL"
"8410","ROBERT B. POLLOCK SCHOOL","POLLOCK, ROBERT B. SCHOOL","2850 WELSH RD.","19152",,"PHILADELPHIA               ","PA","2159612004","00 ","06 ","www.philasd.org/schools/pollock","ELEMENTARY SCHOOL"
"4060","MURRELL DOBBINS HIGH SCHOOL","DOBBINS, MURRELL HIGH SCHOOL","2150 W. LEHIGH AVE.","19132",,"PHILADELPHIA               ","PA","2152274421","09 ","12 ","www.philasd.org/schools/dobbins","CAREER AND TECHNICAL HIGH SCHL"
"4100","DIMNER BEEBER MIDDLE SCHOOL","BEEBER, DIMNER MIDDLE SCHOOL","5925 MALVERN AVE.","19131",,"PHILADELPHIA               ","PA","2155815513","06 ","08 ","www.philasd.org/schools/beeber","MIDDLE SCHOOL"
"4140","STRAWBERRY MANSION HIGH","STRAWBERRY MANSION HIGH SCHOOL","3133 RIDGE AVE.","19132",,"PHILADELPHIA               ","PA","2156845089","09 ","12 ",,"HIGH SCHOOL"
"4150","RHODES MIDDLE SCHOOL","RHODES, E. WASHINGTON MIDDLE","2900 W. CLEARFIELD ST.","19132",,"PHILADELPHIA               ","PA","2152274402","07 ","08 ","www.philasd.org/schools/rhodes","MIDDLE SCHOOL"
"4020","OVERBROOK HIGH SCHOOL","OVERBROOK HIGH SCHOOL","5898 LANCASTER AVE.","19131",,"PHILADELPHIA               ","PA","2155815507","09 ","12 ","www.philasd.org/schools/overbrookhs","HIGH SCHOOL"
"4030","ENGINEERING & SCIENCE HIGH","ENGINEERING & SCIENCE HIGH","1600 W. NORRIS ST.","19121",,"PHILADELPHIA               ","PA","2156845079","09 ","12 ","www.carver.phila.k12.pa.us","HIGH SCHOOL"
"8380","LOUIS H. FARRELL SCHOOL","FARRELL, LOUIS H. SCHOOL","8300 CASTOR AVE.","19152",,"PHILADELPHIA               ","PA","2157285009","00 ","08 ","www.philasd.org/schools/farrell","ELEMENTARY SCHOOL"
"8390","A. L. FITZPATRICK SCHOOL","FITZPATRICK, A. L. SCHOOL","11061 KNIGHTS RD.","19154",,"PHILADELPHIA               ","PA","2152812602","00 ","08 ",,"ELEMENTARY SCHOOL"
"8400","ANNE FRANK SCHOOL","FRANK, ANNE SCHOOL","2000 BOWLER ST.","19115",,"PHILADELPHIA               ","PA","2159612005","00 ","05 ","www.philasd.org/schools/annefrank","ELEMENTARY SCHOOL"
"4530","EDWARD GIDEON SCHOOL","GIDEON, EDWARD SCHOOL","2817 W. GLENWOOD AVE.","19121",,"PHILADELPHIA               ","PA","2156845072","00 ","08 ",,"ELEMENTARY SCHOOL"
"4560","WILLIAM D. KELLEY SCHOOL","KELLEY, WILLIAM D. SCHOOL","1601 N. 28TH ST.","19121",,"PHILADELPHIA               ","PA","2156845071","00 ","08 ","www.philasd.org/schools/kelley","ELEMENTARY SCHOOL"
"4570","GEN. GEORGE G. MEADE SCHOOL","MEADE, GEN. GEORGE G. SCHOOL","1600 N. 18TH ST.","19121",,"PHILADELPHIA               ","PA","2156845062","00 ","08 ",,"ELEMENTARY SCHOOL"
"4220","BLAINE ACADEMICS PLUS SCHOOL","BLAINE, JAMES G. SCHOOL","3001 W. BERKS ST.","19121",,"PHILADELPHIA               ","PA","2156845085","00 ","08 ","www.philasd.org/schools/blaine","ELEMENTARY SCHOOL"
"4240","LEWIS C CASSIDY ACADEMICS PLUS","CASSIDY,LEWIS C ACADEMICS PLUS","6523 LANSDOWNE AVE.","19151",,"PHILADELPHIA               ","PA","2155815506","00 ","06 ","www.philasd.org/schools/cassidy","ELEMENTARY SCHOOL"
"4270","WILLIAM DICK SCHOOL","DICK, WILLIAM SCHOOL","2498 W. DIAMOND ST.","19121",,"PHILADELPHIA               ","PA","2156845081","00 ","08 ",,"ELEMENTARY SCHOOL"
"4280","SAMUEL GOMPERS SCHOOL","GOMPERS, SAMUEL SCHOOL","5701 WYNNEFIELD AVE.","19131",,"PHILADELPHIA               ","PA","2155815503","00 ","06 ","www.philasd.org/schools/gompers","ELEMENTARY SCHOOL"
"4300","HESTON ACADEMICS PLUS SCHOOL","HESTON, EDWARD SCHOOL","1621 N. 54TH ST.","19131",,"PHILADELPHIA               ","PA","2155815514","00 ","08 ",,"ELEMENTARY SCHOOL"
"6330","PASTORIUS SCHOOL","PASTORIUS, FRANCIS D. SCHOOL","5650 SPRAGUE ST.","19138",,"PHILADELPHIA               ","PA","2159514008","00 ","08 ",,"ELEMENTARY SCHOOL"
"4310","KENDERTON SCHOOL","KENDERTON SCHOOL","1500 W. ONTARIO ST.","19140",,"PHILADELPHIA               ","PA","2152274412","00 ","08 ","www.philasd.org/schools/kenderton","ELEMENTARY SCHOOL"
"6390","EDWARD T STEEL SCHOOL","STEEL, EDWARD SCHOOL","4301 WAYNE AVE.","19140",,"PHILADELPHIA               ","PA","2154563008","00 ","08 ","www.philasd.org/schools/steel","ELEMENTARY SCHOOL"
"4370","OVERBROOK ELEMENTARY SCHOOL","OVERBROOK ELEMENTARY SCHOOL","2032 N. 62ND ST.","19151",,"PHILADELPHIA               ","PA","2155815691","00 ","05 ","www.philasd.org/schools/overbrook","ELEMENTARY SCHOOL"
"4380","THOMAS M. PEIRCE SCHOOL","PEIRCE, THOMAS M. SCHOOL","2300 W. CAMBRIA ST.","19132",,"PHILADELPHIA               ","PA","2152274411","00 ","06 ",,"ELEMENTARY SCHOOL"
"4390","ANNE B. PRATT SCHOOL","PRATT, ANNA B. SCHOOL","2200 N. 22ND ST.","19132",,"PHILADELPHIA               ","PA","2156845083","00 ","06 ","www.philasd.org/schools/pratt","ELEMENTARY SCHOOL"
"4400","M. HALL STANTON SCHOOL","STANTON, M. HALL SCHOOL","2539 N. 16TH ST.","19132",,"PHILADELPHIA               ","PA","2152274434","00 ","07 ",,"ELEMENTARY SCHOOL"
"4430","JOHN WHITTIER SCHOOL","WHITTIER, JOHN G. SCHOOL","3001 N. 27TH ST.","19132",,"PHILADELPHIA               ","PA","2152274410","00 ","06 ",,"ELEMENTARY SCHOOL"
"4440","DR. ETHEL ALLEN SCHOOL","ALLEN, DR. ETHEL SCHOOL","3200 W. LEHIGH AVE.","19132",,"PHILADELPHIA               ","PA","2152274404","00 ","08 ","www.philasd.org/schools/ethelallen","ELEMENTARY SCHOOL"
"4450","LESLIE P. HILL SCHOOL","HILL, LESLIE P. SCHOOL","3133 RIDGE AVE.","19132",,"PHILADELPHIA               ","PA","2156845077","00 ","08 ",,"ELEMENTARY SCHOOL"
"4460","TANNER DUCKREY SCHOOL","DUCKREY, TANNER SCHOOL","1501 W. DIAMOND ST.","19121",,"PHILADELPHIA               ","PA","2156845066","00 ","08 ",,"ELEMENTARY SCHOOL"
"4470","RICHARD WRIGHT SCHOOL","WRIGHT, RICHARD R. SCHOOL","2700 W. DAUPHIN ST.","19132",,"PHILADELPHIA               ","PA","2156845076","00 ","06 ",,"ELEMENTARY SCHOOL"
"4480","OVERBROOK EDUCATIONAL CENTER","OVERBROOK EDUCATIONAL CENTER","6722 LANSDOWNE AVE.","19151",,"PHILADELPHIA               ","PA","2155815890","00 ","08 ","www.philasd.org/schools/oec","ELEMENTARY SCHOOL"
"5020","THOMAS EDISON HIGH SCHOOL","EDISON, THOMAS A. HIGH SCHOOL","151 W. LUZERNE ST.","19140",,"PHILADELPHIA               ","PA","2153249599","09 ","12 ","philasd.org/schools/edison","HIGH SCHOOL"
"5060","JULES MASTBAUM HIGH SCHOOL","MASTBAUM, JULES E. HIGH SCHOOL","3116 FRANKFORD AVE.","19134",,"PHILADELPHIA               ","PA","2152914703","09 ","12 ","www.philasd.org/schools/mastbaum","CAREER AND TECHNICAL HIGH SCHL"
"5070","PARKWAY-NORTHWEST HIGH SCHOOL","PARKWAY-NORTHWEST HIGH SCHOOL","7500 GERMANTOWN AVE.","19119",,"PHILADELPHIA               ","PA","2152486220","09 ","12 ","www.philasd.org/schools/parkwaynw/","HIGH SCHOOL"
"5400","RICHMOND ACADEMICS PLUS SCHOOL","RICHMOND SCHOOL","2944 BELGRADE ST.","19134",,"PHILADELPHIA               ","PA","2152914718","00 ","05 ",,"ELEMENTARY SCHOOL"
"5410","ISAAC A. SHEPPARD SCHOOL","SHEPPARD, ISAAC A. SCHOOL","120 W. CAMBRIA ST.","19133",,"PHILADELPHIA               ","PA","2152914711","00 ","04 ",,"ELEMENTARY SCHOOL"
"5420","JOHN WELSH SCHOOL","WELSH, JOHN SCHOOL","2331 N. 4TH ST.","19133",,"PHILADELPHIA               ","PA","2152914708","00 ","08 ","www.philasd.org/schools/welsh","ELEMENTARY SCHOOL"
"5430","AMY 5 AT JAMES MARTIN","AMY 5 AT JAMES MARTIN","3380 RICHMOND ST.","19134",,"PHILADELPHIA               ","PA","2152914172","06 ","08 ","www.philasd.org/schools/martin","MIDDLE SCHOOL"
"5440","FRANCES E. WILLARD SCHOOL","WILLARD, FRANCES E. SCHOOL","1930 E. ELKHART ST.","19134",,"PHILADELPHIA               ","PA","2152914714","00 ","04 ","www.philasd.org/schools/willard","ELEMENTARY SCHOOL"
"5450","CHARLES CARROLL HIGH SCHOOL","CARROLL, CHARLES HIGH SCHOOL","2700 E. AUBURN ST.","19134",,"PHILADELPHIA               ","PA","2152914707","09 ","12 ","www.philasd.org/schools/carroll","HIGH SCHOOL"
"5470","CRAMP SCHOOL","CRAMP, WILLIAM SCHOOL","3449 N. MASCHER ST.","19140",,"PHILADELPHIA               ","PA","2152914704","00 ","06 ",,"ELEMENTARY SCHOOL"
"5480","GEN. PHILIP KEARNY SCHOOL","KEARNY, GEN. PHILIP SCHOOL","601 FAIRMOUNT AVE.","19123",,"PHILADELPHIA               ","PA","2153517343","00 ","08 ",,"ELEMENTARY SCHOOL"
"5490","CAYUGA SCHOOL","CAYUGA SCHOOL","4344-4358 N. 5TH ST.","19140",,"PHILADELPHIA               ","PA","2154563167","00 ","05 ","www.philasd.org/schools/cayuga","ELEMENTARY SCHOOL"
"5500","THURGOOD MARSHALL SCHOOL","MARSHALL, THURGOOD SCHOOL","5120 N. 6TH ST.","19120",,"PHILADELPHIA               ","PA","2154560170","00 ","08 ","www.philasd.org/schools/tmarshall","ELEMENTARY SCHOOL"
"5530","PHILIP H. SHERIDAN SCHOOL","SHERIDAN, PHILIP H. SCHOOL","800 E. ONTARIO ST.","19134",,"PHILADELPHIA               ","PA","2152914724","00 ","04 ","www.philasd.org/schools/sheridan","ELEMENTARY SCHOOL"
"5560","SPRING GARDEN SCHOOL","SPRING GARDEN SCHOOL","1146 MELON ST.","19123",,"PHILADELPHIA               ","PA","2156845070","00 ","08 ",,"ELEMENTARY SCHOOL"
"5590","JOHN H. WEBSTER SCHOOL","WEBSTER, JOHN H. SCHOOL","3400 FRANKFORD AVE.","19134",,"PHILADELPHIA               ","PA","2155372525","00 ","05 ","www.philasd.org/schools/webster","ELEMENTARY SCHOOL"
"5680","HON. LUIS MUNOZ-MARIN SCHOOL","MUNOZ-MARIN, HON LUIS SCHOOL","3300 N. 3RD ST.","19140",,"PHILADELPHIA               ","PA","2152918825","00 ","08 ","www.philasd.org/schools/marin","ELEMENTARY SCHOOL"
"1050","PAUL ROBESON HIGH SCHOOL","ROBESON, PAUL HIGH SCHOOL","4125 LUDLOW ST.","19104",,"PHILADELPHIA               ","PA","2158238207","09 ","12 ","www.philasd.org/schools/robeson","HIGH SCHOOL"
"1060","COMMUNICATIONS TECHNOLOGY HS","COMMUNICATIONS TECHNOLOGY HS","8110 LYONS AVE.","19153",,"PHILADELPHIA               ","PA","2154926958","09 ","12 ","www.philasd.org/schools/commtech","HIGH SCHOOL"
"5080","PARKWAY CENTER CITY HIGH SCHL","PARKWAY CENTER CITY HIGH SCHL","540 N. 13TH ST.","19123",,"PHILADELPHIA               ","PA","2153517095","09 ","12 ","www.philasd.org/schools/parkwaycc","HIGH SCHOOL"
"5110","PENN TREATY MIDDLE SCHOOL","PENN TREATY MIDDLE SCHOOL","600 E. THOMPSON ST.","19125",,"PHILADELPHIA               ","PA","2152914715","06 ","08 ","www.philasd.org/schools/penntreaty","MIDDLE SCHOOL"
"5150","WILLIAM W. BODINE H.S.","BODINE, WILLIAM W. H.S.","1101 N. 4TH ST.","19123",,"PHILADELPHIA               ","PA","2153517332","09 ","12 ","www.philasd.org/schools/bodine","HIGH SCHOOL"
"5170","JULIA DE BURGOS ELEMENTARY","DEBURGOS, J. ELEMENTARY","401 W. LEHIGH AVE.","19133",,"PHILADELPHIA               ","PA","2152914065","00 ","08 ",,"ELEMENTARY SCHOOL"
"5200","ALEXANDER ADAIRE SCHOOL","ADAIRE, ALEXANDER SCHOOL","1300 E. PALMER ST.","19125",,"PHILADELPHIA               ","PA","2152914712","00 ","08 ",,"ELEMENTARY SCHOOL"
"5210","H.A. BROWN ACADEMICS PLUS SCH","BROWN, HENRY A. SCHOOL","1946 E. SERGEANT ST.","19125",,"PHILADELPHIA               ","PA","2152914717","00 ","08 ","www.philasd.org/schools/habrown","ELEMENTARY SCHOOL"
"5230","RUSSELL H. CONWELL MIDDLE SCH.","CONWELL, RUSSELL MIDDLE SCHOOL","1849 E. CLEARFIELD AVE.","19134",,"PHILADELPHIA               ","PA","2152914722","05 ","08 ","www.philasd.org/schools/conwell","MIDDLE SCHOOL"
"5280","FAIRHILL SCHOOL","FAIRHILL SCHOOL","601 W. SOMERSET ST.","19133",,"PHILADELPHIA               ","PA","2152274406","00 ","08 ",,"ELEMENTARY SCHOOL"
"5290","FERGUSON ACADEMICS PLUS SCHOOL","FERGUSON, JOSEPH C. SCHOOL","2000 N. 7TH ST.","19122",,"PHILADELPHIA               ","PA","2156845092","00 ","08 ","www.philasd.org/schools/ferguson","ELEMENTARY SCHOOL"
"5300","HACKETT SCHOOL","HACKETT, HORATIO B. SCHOOL","2161 E. YORK ST.","19125",,"PHILADELPHIA               ","PA","2152914706","00 ","06 ","www.philasd.org/schools/hackett","ELEMENTARY SCHOOL"
"5320","JOHN F. HARTRANFT SCHOOL","HARTRANFT, JOHN F. SCHOOL","720 W. CUMBERLAND ST.","19133",,"PHILADELPHIA               ","PA","2156845088","00 ","08 ",,"ELEMENTARY SCHOOL"
"5330","WILLIAM H. HUNTER SCHOOL","HUNTER, WILLIAM H. SCHOOL","2400 N. FRONT ST.","19133",,"PHILADELPHIA               ","PA","2152914710","00 ","08 ","www.philasd.org/schools/hunter","ELEMENTARY SCHOOL"
"5340","JAMES R. LUDLOW SCHOOL","LUDLOW, JAMES R. SCHOOL","550 W. MASTER ST.","19122",,"PHILADELPHIA               ","PA","2156845060","00 ","08 ",,"ELEMENTARY SCHOOL"
"5350","WILLIAM MCKINLEY SCHOOL","MCKINLEY, WILLIAM SCHOOL","2101 N. ORKNEY ST.","19122",,"PHILADELPHIA               ","PA","2152914702","00 ","08 ",,"ELEMENTARY SCHOOL"
"5370","JOHN MOFFET SCHOOL","MOFFET, JOHN SCHOOL","127 W. OXFORD ST.","19122",,"PHILADELPHIA               ","PA","2152914721","00 ","05 ","www.philasd.org/schools/moffet","ELEMENTARY SCHOOL"
"5390","POTTER THOMAS SCHOOL","POTTER-THOMAS SCHOOL","3001 N. 6TH ST.","19133",,"PHILADELPHIA               ","PA","2152274423","00 ","08 ","www.philasd.org/schools/potterthomas","ELEMENTARY SCHOOL"
"6050","PHILA HIGH SCHOOL FOR GIRLS","GIRLS, PHILA HIGH SCHOOL FOR","1400 W. OLNEY AVE.","19141",,"PHILADELPHIA               ","PA","2152765258","09 ","12 ","www.philasd.org/schools/girlshigh","HIGH SCHOOL"
"6060","MARTIN L. KING HIGH SCHOOL","KING, MARTIN LUTHER HIGH SCH.","6100 STENTON AVE.","19138",,"PHILADELPHIA               ","PA","2152765253","09 ","12 ","www.philasd.org/schools/mlking","HIGH SCHOOL"
"6090","RANDOLPH TECHNICAL HIGH SCHOOL","RANDOLPH TECHNICAL HIGH SCHOOL","3101 HENRY AVE.","19129",,"PHILADELPHIA               ","PA","2152274407","09 ","12 ","www.philasd.org/schools/randolph","CAREER AND TECHNICAL HIGH SCHL"
"6100","LEEDS MIDDLE SCHOOL","LEEDS, MORRIS E. MIDDLE SCHOOL","1100 E. MT. PLEASANT AVE.","19150",,"PHILADELPHIA               ","PA","2152486602","07 ","08 ","www.philasd.org/schools/leeds","MIDDLE SCHOOL"
"6110","ROOSEVELT MIDDLE SCHOOL","ROOSEVELT, THEODORE MIDDLE SCH","430 E. WASHINGTON LN.","19144",,"PHILADELPHIA               ","PA","2159514170","07 ","08 ","www.philasd.org/schools/roosevelt","MIDDLE SCHOOL"
"6200","ANNA B. DAY SCHOOL","DAY, ANNA B. SCHOOL","6324 CRITTENDEN ST.","19138",,"PHILADELPHIA               ","PA","2152765250","00 ","08 ","www.philasd.org/schools/day","ELEMENTARY SCHOOL"
"6210","FRANKLIN S. EDMONDS SCHOOL","EDMONDS, FRANKLIN S. SCHOOL","8025 THOURON AVE.","19150",,"PHILADELPHIA               ","PA","2152765261","00 ","06 ","www.philasd.org/schools/edmonds","ELEMENTARY SCHOOL"
"6220","ELEANOR C. EMLEN SCHOOL","EMLEN, ELEANOR C. SCHOOL","6501 CHEW AVE.","19119",,"PHILADELPHIA               ","PA","2159514010","00 ","06 ","www.philasd.org/schools/emlen","ELEMENTARY SCHOOL"
"6230","FITLER ACADEMICS PLUS","FITLER ACADEMICS PLUS","140 W. SEYMOUR ST.","19144",,"PHILADELPHIA               ","PA","2159514009","01 ","08 ","www.philasd.org/schools/fitler","ELEMENTARY SCHOOL"
"6240","ROBERT FULTON SCHOOL","FULTON, ROBERT SCHOOL","60 E. HAINES ST.","19144",,"PHILADELPHIA               ","PA","2159514005","00 ","06 ","www.philasd.org/schools/fulton","ELEMENTARY SCHOOL"
"6250","CHARLES W HENRY SCHOOL","HENRY, CHARLES W. SCHOOL","601 CARPENTER LN.","19119",,"PHILADELPHIA               ","PA","2159514006","00 ","08 ","www.philasd.org/schools/henry","ELEMENTARY SCHOOL"
"6260","HENRY H. HOUSTON SCHOOL","HOUSTON, HENRY H. SCHOOL","7300 RURAL LN.","19119",,"PHILADELPHIA               ","PA","2152486608","00 ","08 ","www.philasd.org/schools/houston","ELEMENTARY SCHOOL"
"6340","JOSEPH PENNELL ELEMENTARY","PENNELL, JOSEPH ELEMENTARY","1800 NEDRO AVE.","19141",,"PHILADELPHIA               ","PA","2152765267","00 ","06 ","www.philasd.org/schools/pennell","ELEMENTARY SCHOOL"
"6400","WIDENER MEMORIAL SCHOOL","WIDENER MEMORIAL SCHOOL","1450 W. OLNEY AVE.","19141",,"PHILADELPHIA               ","PA","2154563015","00 ","12 ","www.philasd.org/schools/widener","ELEMENTARY SCHOOL"
"6410","COOK-WISSAHICKON SCHOOL","COOK-WISSAHICKON SCHOOL","201 E. SALAIGNAC ST.","19128",,"PHILADELPHIA               ","PA","2154874463","00 ","08 ","www.philasd.org/schools/cookwissahickon","ELEMENTARY SCHOOL"
"6430","JOHN WISTER SCHOOL","WISTER, JOHN SCHOOL","67 E. BRINGHURST ST.","19144",,"PHILADELPHIA               ","PA","2159514003","00 ","06 ","www.philasd.org/schools/wister","ELEMENTARY SCHOOL"
"6440","ANNA L. LINGELBACH SCHOOL","LINGELBACH, ANNA L. SCHOOL","6340 WAYNE AVE.","19144",,"PHILADELPHIA               ","PA","2159514001","00 ","08 ","www.philasd.org/schools/lingelbach","ELEMENTARY SCHOOL"
"6450","JAMES DOBSON SCHOOL","DOBSON, JAMES SCHOOL","4667 UMBRIA ST.","19127",,"PHILADELPHIA               ","PA","2154874460","00 ","08 ","www.philasd.org/schools/dobson","ELEMENTARY SCHOOL"
"6460","HILL-FREEDMAN MIDDLE SCHOOL","HILL-FREEDMAN MIDDLE SCHOOL","6200 CRITTENDEN ST.","19138",,"PHILADELPHIA               ","PA","2152765260","06 ","08 ","www.philasd.org/schools/hill-freedman","MIDDLE SCHOOL"
"6270","JOHN STORY JENKS SCHOOL","JENKS, JOHN S. SCHOOL","8301 GERMANTOWN AVE.","19118",,"PHILADELPHIA               ","PA","2152486604","00 ","08 ","www.philasd.org/schools/jsjenks","ELEMENTARY SCHOOL"
"6280","JOHN L. KINSEY SCHOOL","KINSEY, JOHN L. SCHOOL","6501 LIMEKILN PIKE","19138",,"PHILADELPHIA               ","PA","2152765266","00 ","08 ","www.philasd.org/schools/kinsey","ELEMENTARY SCHOOL"
"6300","LOGAN SCHOOL","LOGAN, JAMES SCHOOL","1700 LINDLEY AVE.","19141",,"PHILADELPHIA               ","PA","2154563006","00 ","06 ","www.philasd.org/schools/logan","ELEMENTARY SCHOOL"
"6310","MCCLOSKEY SCHOOL","MCCLOSKEY, JOHN F. SCHOOL","8500 PICKERING ST.","19150",,"PHILADELPHIA               ","PA","2152486600","00 ","06 ","www.philasd.org/schools/mccloskey","ELEMENTARY SCHOOL"
"6320","MIFFLIN SCHOOL","MIFFLIN, THOMAS SCHOOL","3624 CONRAD ST.","19129",,"PHILADELPHIA               ","PA","2159514007","00 ","08 ","www.philasd.org/schools/mifflin","ELEMENTARY SCHOOL"
"4320","ROBERT E LAMBERTON ELEMENTARY","LAMBERTON,ROBERT E ELEMENTARY","7501 WOODBINE AVE.","19151",,"PHILADELPHIA               ","PA","2155815650","00 ","08 ","www.philasd.org/schools/lamberton","ELEMENTARY SCHOOL"
"6010","CENTRAL HIGH SCHOOL","CENTRAL HIGH SCHOOL","1700 W. OLNEY AVE.","19141",,"PHILADELPHIA               ","PA","2152765262","09 ","12 ","www.centralhigh.net","HIGH SCHOOL"
"6020","GERMANTOWN HIGH SCHOOL","GERMANTOWN HIGH SCHOOL","40 E. HIGH ST.","19144",,"PHILADELPHIA               ","PA","2159514004","09 ","12 ","www.philasd.org/schools/germantown","HIGH SCHOOL"
"6030","ROXBOROUGH HIGH SCHOOL","ROXBOROUGH HIGH SCHOOL","6498 RIDGE AVE.","19128",,"PHILADELPHIA               ","PA","2154874464","09 ","12 ","www.philasd.org/schools/roxborough","HIGH SCHOOL"
"6040","W. B. SAUL HIGH SCHOOL","SAUL, WALTER B. HIGH SCHOOL","7100 HENRY AVE.","19128",,"PHILADELPHIA               ","PA","2154874467","09 ","12 ","www.philasd.org/schools/saul","CAREER AND TECHNICAL HIGH SCHL"
"6480","AMY NORTHWEST","AMY NORTHWEST","6000 RIDGE AVE.","19128",,"PHILADELPHIA               ","PA","2154877600","06 ","08 ","www.philasd.org/schools/amynw","MIDDLE SCHOOL"
"6540","LANKENAU HIGH SCHOOL","LANKENAU HIGH SCHOOL","201 SPRING LANE","19128",,"PHILADELPHIA               ","PA","2154874465","09 ","12 ","www.philasd.org/schools/lankenau","HIGH SCHOOL"
"7100","COOKE ELEMENTARY SCHOOL","COOKE, JAY ELEMENTARY SCHOOL","1300 W. LOUDEN ST.","19141",,"PHILADELPHIA               ","PA","2154563002","00 ","08 ","www.philasd.org/schools/jaycooke","ELEMENTARY SCHOOL"
"7110","HARDING MIDDLE SCHOOL","HARDING, WARREN G. MIDDLE SCH","2000 WAKELING ST.","19124",,"PHILADELPHIA               ","PA","2155372528","06 ","08 ","www.philasd.org/schools/harding","MIDDLE SCHOOL"
"7120","SAMUEL S. FELS HIGH SCHOOL","FELS, SAMUEL HIGH SCHOOL","5500 LANGDON ST.","19124",,"PHILADELPHIA               ","PA","2155372516","09 ","12 ","www.philasd.org/schools/fels","HIGH SCHOOL"
"7200","BARTON SCHOOL","BARTON SCHOOL","4600 ROSEHILL ST.","19120",,"PHILADELPHIA               ","PA","2154563007","00 ","02 ","www.philasd.org/schools/barton","ELEMENTARY SCHOOL"
"7220","CARNELL SCHOOL","CARNELL, LAURA H. SCHOOL","1100 DEVEREAUX AVE.","19111",,"PHILADELPHIA               ","PA","2155372527","00 ","08 ","www.philasd.org/schools/carnell","ELEMENTARY SCHOOL"
"6470","JOHN B. KELLY SCHOOL","KELLY, JOHN B. SCHOOL","5116 PULASKI AVE.","19144",,"PHILADELPHIA               ","PA","2159514011","00 ","06 ","www.philasd.org/schools/kelly","ELEMENTARY SCHOOL"
"7260","ELLWOOD SCHOOL","ELLWOOD SCHOOL","6701 N. 13TH ST.","19126",,"PHILADELPHIA               ","PA","2152765286","00 ","05 ","www.philasd.org/schools/ellwood","ELEMENTARY SCHOOL"
"7270","FINLETTER ACADEMICS PLUS SCH","FINLETTER, THOMAS K. SCHOOL","6100 N. FRONT ST.","19120",,"PHILADELPHIA               ","PA","2152765265","00 ","08 ","www.philasd.org/schools/finletter","ELEMENTARY SCHOOL"
"7280","FRANKLIN ACADEMICS PLUS SCHOOL","FRANKLIN, BENJAMIN SCHOOL","5735 RISING SUN AVE.","19120",,"PHILADELPHIA               ","PA","2157285017","00 ","08 ","www.philasd.org/schools/franklin","ELEMENTARY SCHOOL"
"7290","ALLEN M. STEARNE SCHOOL","STEARNE, ALLEN M. SCHOOL","1655 UNITY ST.","19124",,"PHILADELPHIA               ","PA","2155372522","00 ","06 ","www.philasd.org/schools/stearne","ELEMENTARY SCHOOL"
"7010","FRANKFORD HIGH SCHOOL","FRANKFORD HIGH SCHOOL","5000 OXFORD AVE.","19124",,"PHILADELPHIA               ","PA","2155372519","09 ","12 ","www.philasd.org/schools/frankford","HIGH SCHOOL"
"1290","ANDREW HAMILTON SCHOOL","HAMILTON, ANDREW SCHOOL","5640 SPRUCE ST.","19139",,"PHILADELPHIA               ","PA","2154712911","00 ","08 ","www.philasd.org/schools/hamilton","ELEMENTARY SCHOOL"
"7300","FRANCIS HOPKINSON SCHOOL","HOPKINSON, FRANCIS SCHOOL","4001 L ST.","19124",,"PHILADELPHIA               ","PA","2155372526","00 ","08 ","www.philasd.org/schools/hopkinson","ELEMENTARY SCHOOL"
"7310","FELTONVILLE INTERMEDIATE","FELTONVILLE INTERMEDIATE","238 E. WYOMING AVE.","19120",,"PHILADELPHIA               ","PA","2154563012","03 ","05 ","www.philasd.org/schools/feltonville-intermediate","ELEMENTARY SCHOOL"
"7320","HOWE ACADEMICS PLUS SCHOOL","HOWE, JULIA WARD SCHOOL","5800 N. 13TH ST.","19141",,"PHILADELPHIA               ","PA","2152765270","00 ","05 ","www.philasd.org/schools/howe","ELEMENTARY SCHOOL"
"7330","HENRY W. LAWTON SCHOOL","LAWTON, HENRY W. SCHOOL","6101 JACKSON ST.","19135",,"PHILADELPHIA               ","PA","2153355659","00 ","06 ","www.philasd.org/schools/lawton","ELEMENTARY SCHOOL"
"7350","JAMES R. LOWELL SCHOOL","LOWELL, JAMES R. SCHOOL","450 W. NEDRO AVE.","19120",,"PHILADELPHIA               ","PA","2152765272","00 ","04 ","www.philasd.org/schools/lowell","ELEMENTARY SCHOOL"
"7360","JOHN MARSHALL SCHOOL","MARSHALL, JOHN SCHOOL","4500 GRISCOM ST.","19124",,"PHILADELPHIA               ","PA","2155372521","00 ","05 ","www.philasd.org/schools/marshall","ELEMENTARY SCHOOL"
"6350","PENNYPACKER SCHOOL","PENNYPACKER, SAMUEL SCHOOL","1858 E. WASHINGTON LN.","19138",,"PHILADELPHIA               ","PA","2152765271","00 ","06 ","www.philasd.org/schools/pennypacker","ELEMENTARY SCHOOL"
"6380","SHAWMONT SCHOOL","SHAWMONT SCHOOL","535 SHAWMONT AVE.","19128",,"PHILADELPHIA               ","PA","2154874466","00 ","08 ","www.philasd.org/schools/shawmont","ELEMENTARY SCHOOL"
"5240","STEPHEN A DOUGLAS HIGH SCHOOL","DOUGLAS,STEPHEN A. HIGH SCHOOL","2700 E. HUNTINGDON ST.","19125",,"PHILADELPHIA               ","PA","2152914705","09 ","12 ",,"HIGH SCHOOL"
"5250","DUNBAR ACADEMICS PLUS SCHOOL","DUNBAR, PAUL L. SCHOOL","1750 N. 12TH ST.","19122",,"PHILADELPHIA               ","PA","2156845065","00 ","08 ","www.philasd.org/schools/dunbar","ELEMENTARY SCHOOL"
"5260","LEWIS ELKIN SCHOOL","ELKIN, LEWIS SCHOOL","3199 D ST.","19134",,"PHILADELPHIA               ","PA","2152914701","00 ","04 ","www.philasd.org/schools/elkin","ELEMENTARY SCHOOL"
"1030","HIGH SCHOOL OF THE FUTURE","HIGH SCHOOL OF THE FUTURE","4021 PARKSIDE AVE.","19104",,"PHILADELPHIA               ","PA","2158235502","09 ","12 ","www.philasd.org/schools/hsof","HIGH SCHOOL"
"6070","PHILA MILITARY ACADEMY @ LEEDS","PHILA MILITARY ACADEMY @ LEEDS","1100 E. MT. PLEASANT AVE.","19150",,"PHILADELPHIA               ","PA","2152486650","09 ","12 ","www.philasd.org/schools/pmaleeds","HIGH SCHOOL"
"5650","SHERIDAN WEST ACADEMY","SHERIDAN WEST ACADEMY","3701 FRANKFORD AVE.","19124",,"PHILADELPHIA               ","PA","2155372920","07 ","08 ","www.philasd.org/schools/sheridanwest","MIDDLE SCHOOL"
"5090","PARKWAY WEST HIGH SCHOOL","PARKWAY WEST HIGH SCHOOL","4725 FAIRMOUNT AVE.","19139",,"PHILADELPHIA               ","PA","2155815510","09 ","12 ","www.philasd.org/schools/parkwaywest","HIGH SCHOOL"
"4330","ROBERT E LAMBERTON HIGH SCHOOL","LAMBERTON,ROBERT E HIGH SCHOOL","7501 WOODBINE AVE.","19151",,"PHILADELPHIA               ","PA","2155815647","09 ","12 ","www.philasd.org/schools/lamberton","HIGH SCHOOL"
"1190","MOTIVATION HIGH SCHOOL","MOTIVATION HIGH SCHOOL","2555 S. 78TH ST.","19153",,"PHILADELPHIA               ","PA","2154926451","09 ","12 ","www.philasd.org/schools/motivation","HIGH SCHOOL"
"8040","ARTS ACADEMY AT BENJAMIN RUSH","ARTS ACADEMY AT BENJAMIN RUSH","11081 KNIGHTS RD.","19154",,"PHILADELPHIA               ","PA","2152812603","09 ","12 ",,"HIGH SCHOOL"
"5050","PHILA MILITARY ACAD @ ELVERSON","PHILA MILITARY ACAD @ ELVERSON","2118 N. 13TH ST.","19122",,"PHILADELPHIA               ","PA","2156845091","09 ","12 ",,"HIGH SCHOOL"
"5520","KENSINGTON CAPA","KENSINGTON CAPA","1901 N. FRONT ST.","19121",,"PHILADELPHIA               ","PA","2152915010","09 ","12 ",,"HIGH SCHOOL"
"5550","KENSINGTON HEALTH SCIENCES","KENSINGTON HEALTH SCIENCES","2463 EMERALD ST.","19125",,"PHILADELPHIA               ","PA","2152915185","09 ","12 ","www.philasd.org/schools/kensington-health-sciences","HIGH SCHOOL"
"5510","KENSINGTON BUSINESS, FINANCE","KENSINGTON BUSINESS, FINANCE","2501 CORAL ST.","19125",,"PHILADELPHIA               ","PA","2152915168","09 ","12 ",,"HIGH SCHOOL"
"2670","CONSTITUTION HIGH SCHOOL","CONSTITUTION HIGH SCHOOL","18 S. 7TH ST.","19106",,"PHILADELPHIA               ","PA","2153517310","09 ","12 ","www.philasd.org/schools/constitution","HIGH SCHOOL"
"2650","SCIENCE LEADERSHIP ACADEMY","SCIENCE LEADERSHIP ACADEMY","55 N. 22ND ST.","19103",,"PHILADELPHIA               ","PA","2159795620","09 ","12 ","www.sla.fi.edu","HIGH SCHOOL"
"2620","ACADEMY AT PALUMBO","ACADEMY AT PALUMBO","1100 CATHARINE ST.","19147",,"PHILADELPHIA               ","PA","2153517618","09 ","12 ","www.philasd.org/schools/palumbo","HIGH SCHOOL"
